CAS500-2 RIDESHARE OBJE*
1 69012U 26100AJ  26129.71720937  .00002910  00000+0  13663-3 0  9996
2 69012  97.4074  28.2312 0006077 151.8908 208.2656 15.20407809   961
