{
  "norad_id": 69012,
  "name": "CAS500-2 RIDESHARE OBJECT AJ",
  "history": [
    {
      "epoch": "2026-05-09T17:12:46.888704Z",
      "apogee_km": 508.7929293551115,
      "perigee_km": 500.42626259304416,
      "latitude_deg": -4.9889442244705364e-05,
      "longitude_deg": -97.49494336927464,
      "height_km": 511.3863593200502,
      "semi_major_axis_km": 6882.7465959740775,
      "eccentricity": 0.0006078,
      "inclination_deg": 97.4074,
      "raan_deg": 28.2312,
      "arg_perigee_deg": 151.8908,
      "mean_anomaly_deg": 208.2656,
      "mean_motion_rev_day": 15.20407809
    }
  ]
}